ONEWEB-0198             
1 48216U 21031G   23261.90784909 -.00000056  00000+0 -18518-3 0  9996
2 48216  87.8991 129.2495 0002032  64.2142 295.9197 13.14500596116816
ONEWEB-0189             
1 48217U 21031H   23262.14886486 -.00000093  00000+0 -28543-3 0  9997
2 48217  87.8986 129.1803 0001903  60.0305 300.1013 13.14502170116584
ONEWEB-0196             
1 48218U 21031J   23262.05161958 -.00000185  00000+0 -53303-3 0  9992
2 48218  87.8991 129.1939 0001892  73.4808 286.6530 13.14504119116569
ONEWEB-0183             
1 48219U 21031K   23262.17636120  .00000120  00000+0  28833-3 0  9991
2 48219  87.8993 129.1892 0001594  75.5646 284.5660 13.14501092116683
ONEWEB-0185             
1 48220U 21031L   23262.05269866 -.00000068  00000+0 -21777-3 0  9992
2 48220  87.8991 129.1884 0001554  71.3843 288.7456 13.14500830116591
ONEWEB-0187             
1 48221U 21031M   23261.87507120  .00000039  00000+0  69869-4 0  9991
2 48221  87.8993 129.2527 0001675  73.3821 286.7492 13.14500254116588
ONEWEB-0192             
1 48222U 21031N   23261.69640162  .00000254  00000+0  64960-3 0  9991
2 48222  87.9034 129.2458 0001874  72.5146 287.6188 13.14506087116471
ONEWEB-0219             
1 48223U 21031P   23262.05795915 -.00001331  00000+0 -36249-2 0  9997
2 48223  87.8990 129.1918 0001550  67.9777 292.1517 13.14508116116732
